0 COSMOS 1141
1 11585U 79090A   13282.82793843  .00000037  00000-0  22041-4 0  9448
2 11585 082.9521 031.7361 0030444 144.7997 007.6503 13.76812236707246
0 COSMOS 1141
1 11585U 79090A   13283.91389519  .00000039  00000-0  23759-4 0  9450
2 11585 082.9523 030.9300 0030481 141.8818 350.0988 13.76812346707393
0 COSMOS 1141
1 11585U 79090A   13286.44158618  .00000042  00000-0  26805-4 0  9476
2 11585 082.9528 029.0542 0030577 135.0570 278.4105 13.76812259707747
0 COSMOS 1141
1 11585U 79090A   13287.45788240  .00000054  00000-0  38494-4 0  9489
2 11585 082.9528 028.3000 0030584 132.3380 275.5818 13.76812223707880
0 COSMOS 1141
1 11585U 79090A   13288.48053633  .00000077  00000-0  61772-4 0  9495
2 11585 082.9527 027.5411 0030582 129.6073 304.2596 13.76812271708025
0 COSMOS 1141
1 11585U 79090A   13289.72311153  .00000088  00000-0  73293-4 0  9502
2 11585 082.9526 026.6192 0030606 126.2597 342.9837 13.76812395708193
0 COSMOS 1141
1 11585U 79090A   13291.53381418  .00000087  00000-0  72018-4 0  9519
2 11585 082.9524 025.2756 0030668 121.3906 317.5778 13.76812665708440
0 COSMOS 1141
1 11585U 79090A   13292.55088697  .00000087  00000-0  72390-4 0  9529
2 11585 082.9523 024.5209 0030701 118.6559 318.6132 13.76812849708580
0 COSMOS 1141
1 11585U 79090A   13293.86618881  .00000070  00000-0  55307-4 0  9530
2 11585 082.9521 023.5447 0030733 115.1373 357.7773 13.76813124708764
0 COSMOS 1141
1 11585U 79090A   13294.88852404  .00000065  00000-0  50483-4 0  9549
2 11585 082.9521 022.7859 0030751 112.4186 024.8666 13.76813351708905
0 COSMOS 1141
1 11585U 79090A   13296.17074009  .00000063  00000-0  47936-4 0  9558
2 11585 082.9522 021.8344 0030766 109.0009 260.0347 13.76813590709082
